{"type": "FeatureCollection", "features": [ {"type": "Feature", "properties": {"norad_id": 66911, "name": "1998-067XX", "group": "stations", "lat": 48.07681237981073, "lon": 168.43257301529448, "alt_km": 404.11433419302557, "timestamp": "2025-12-19T22:41:51.128986+00:00", "meta": {"OBJECT_NAME": "1998-067XX", "OBJECT_ID": "1998-067XX", "EPOCH": "2025-12-19T11:34:45.306048", "MEAN_MOTION": 15.52926927, "ECCENTRICITY": 0.0003973, "INCLINATION": 51.6303, "RA_OF_ASC_NODE": 108.8169, "ARG_OF_PERICENTER": 252.7574, "MEAN_ANOMALY": 107.2982, "EPHEMERIS_TYPE": 0, "CLASSIFICATION_TYPE": "U", "NORAD_CAT_ID": 66911, "ELEMENT_SET_NO": 999, "REV_AT_EPOCH": 265, "BSTAR": 0.00085487, "MEAN_MOTION_DOT": 0.00054082, "MEAN_MOTION_DDOT": 0}, "tle": {"line1": "1 66911U 98067XX  25353.48246882  .00054082  00000+0  85487-3 0  9996", "line2": "2 66911  51.6303 108.8169 0003973 252.7574 107.2982 15.52926927  2650"}}, "geometry": {"type": "Point", "coordinates": [168.43257301529448, 48.07681237981073]}}, {"type": "Feature", "properties": {"norad_id": 66912, "name": "1998-067XY", "group": "stations", "lat": 17.90035781762769, "lon": 121.43725290888557, "alt_km": 410.9948343676788, "timestamp": "2025-12-19T22:41:51.129010+00:00", "meta": {"OBJECT_NAME": "1998-067XY", "OBJECT_ID": "1998-067XY", "EPOCH": "2025-12-19T14:52:14.043072", "MEAN_MOTION": 15.51780846, "ECCENTRICITY": 0.0004012, "INCLINATION": 51.6307, "RA_OF_ASC_NODE": 108.231, "ARG_OF_PERICENTER": 260.881, "MEAN_ANOMALY": 99.1725, "EPHEMERIS_TYPE": 0, "CLASSIFICATION_TYPE": "U", "NORAD_CAT_ID": 66912, "ELEMENT_SET_NO": 999, "REV_AT_EPOCH": 267, "BSTAR": 0.00063264, "MEAN_MOTION_DOT": 0.00038197, "MEAN_MOTION_DDOT": 0}, "tle": {"line1": "1 66912U 98067XY  25353.61960698  .00038197  00000+0  63264-3 0  9998", "line2": "2 66912  51.6307 108.2310 0004012 260.8810  99.1725 15.51780846  2678"}}, "geometry": {"type": "Point", "coordinates": [121.43725290888557, 17.90035781762769]}}]}